{
  "type": "FeatureCollection",
  "features": [
    {
      "type": "Feature",
      "properties": {
        "norad_id": 66591,
        "name": "STARLINK-36058",
        "group": "last-30-days",
        "lat": -29.82312766494795,
        "lon": 142.7878928785535,
        "alt_km": 416.000369825877,
        "timestamp": "2025-12-14T18:52:54.242267+00:00",
        "meta_object_name": "STARLINK-36058",
        "meta_object_id": "2025-270D",
        "meta_epoch": "2025-12-13T20:00:03.000384",
        "meta_mean_motion": 15.50521403,
        "meta_eccentricity": 0.00028789,
        "meta_inclination": 42.9996,
        "meta_ra_of_asc_node": 186.3303,
        "meta_arg_of_pericenter": 272.7196,
        "meta_mean_anomaly": 112.3363,
        "meta_ephemeris_type": 0,
        "meta_classification_type": "U",
        "meta_norad_cat_id": 66591,
        "meta_element_set_no": 999,
        "meta_rev_at_epoch": 457,
        "meta_bstar": 0.00086581264,
        "meta_mean_motion_dot": 0.00050681,
        "meta_mean_motion_ddot": 0,
        "tle_line1": "1 66591U 25270D   25347.83336806  .00050681  00000+0  86581-3 0  9991",
        "tle_line2": "2 66591  42.9996 186.3303 0002878 272.7196 112.3363 15.50521403  4572"
      },
      "geometry": {
        "type": "Point",
        "coordinates": [
          142.7878928785535,
          -29.82312766494795
        ]
      }
    },
    {
      "type": "Feature",
      "properties": {
        "norad_id": 66592,
        "name": "STARLINK-36066",
        "group": "last-30-days",
        "lat": -42.97453860038492,
        "lon": 89.83274730992454,
        "alt_km": 447.79162027575876,
        "timestamp": "2025-12-14T18:52:54.242277+00:00",
        "meta_object_name": "STARLINK-36066",
        "meta_object_id": "2025-270E",
        "meta_epoch": "2025-12-13T20:00:03.000384",
        "meta_mean_motion": 15.4411687,
        "meta_eccentricity": 0.00015132,
        "meta_inclination": 42.9994,
        "meta_ra_of_asc_node": 186.3668,
        "meta_arg_of_pericenter": 262.2706,
        "meta_mean_anomaly": 108.0727,
        "meta_ephemeris_type": 0,
        "meta_classification_type": "U",
        "meta_norad_cat_id": 66592,
        "meta_element_set_no": 999,
        "meta_rev_at_epoch": 447,
        "meta_bstar": -0.047933538,
        "meta_mean_motion_dot": -0.02001981,
        "meta_mean_motion_ddot": 0,
        "tle_line1": "1 66592U 25270E   25347.83336806 -.02001981  00000+0 -47934-1 0  9992",
        "tle_line2": "2 66592  42.9994 186.3668 0001513 262.2706 108.0727 15.44116870  4477"
      },
      "geometry": {
        "type": "Point",
        "coordinates": [
          89.83274730992454,
          -42.97453860038492
        ]
      }
    },
    {
      "type": "Feature",
      "properties": {
        "norad_id": 66593,
        "name": "STARLINK-36031",
        "group": "last-30-days",
        "lat": -27.681433714004573,
        "lon": 146.4816963687467,
        "alt_km": 416.56954346652856,
        "timestamp": "2025-12-14T18:52:54.242287+00:00",
        "meta_object_name": "STARLINK-36031",
        "meta_object_id": "2025-270F",
        "meta_epoch": "2025-12-13T20:00:03.000384",
        "meta_mean_motion": 15.50524406,
        "meta_eccentricity": 0.00015826,
        "meta_inclination": 42.9997,
        "meta_ra_of_asc_node": 186.3212,
        "meta_arg_of_pericenter": 267.5233,
        "meta_mean_anomaly": 121.3549,
        "meta_ephemeris_type": 0,
        "meta_classification_type": "U",
        "meta_norad_cat_id": 66593,
        "meta_element_set_no": 999,
        "meta_rev_at_epoch": 457,
        "meta_bstar": 0.0012115853,
        "meta_mean_motion_dot": 0.00071247,
        "meta_mean_motion_ddot": 0,
        "tle_line1": "1 66593U 25270F   25347.83336806  .00071247  00000+0  12116-2 0  9996",
        "tle_line2": "2 66593  42.9997 186.3212 0001582 267.5233 121.3549 15.50524406  4571"
      },
      "geometry": {
        "type": "Point",
        "coordinates": [
          146.4816963687467,
          -27.681433714004573
        ]
      }
    },
    {
      "type": "Feature",
      "properties": {
        "norad_id": 66594,
        "name": "STARLINK-36032",
        "group": "last-30-days",
        "lat": -26.59845614358794,
        "lon": 148.23454159956694,
        "alt_km": 416.48841124219325,
        "timestamp": "2025-12-14T18:52:54.242299+00:00",
        "meta_object_name": "STARLINK-36032",
        "meta_object_id": "2025-270G",
        "meta_epoch": "2025-12-13T20:00:03.000384",
        "meta_mean_motion": 15.50521184,
        "meta_eccentricity": 0.00015429,
        "meta_inclination": 42.9997,
        "meta_ra_of_asc_node": 186.3163,
        "meta_arg_of_pericenter": 272.7203,
        "meta_mean_anomaly": 118.0771,
        "meta_ephemeris_type": 0,
        "meta_classification_type": "U",
        "meta_norad_cat_id": 66594,
        "meta_element_set_no": 999,
        "meta_rev_at_epoch": 431,
        "meta_bstar": 0.0011976173,
        "meta_mean_motion_dot": 0.00070406,
        "meta_mean_motion_ddot": 0,
        "tle_line1": "1 66594U 25270G   25347.83336806  .00070406  00000+0  11976-2 0  9996",
        "tle_line2": "2 66594  42.9997 186.3163 0001542 272.7203 118.0771 15.50521184  4310"
      },
      "geometry": {
        "type": "Point",
        "coordinates": [
          148.23454159956694,
          -26.59845614358794
        ]
      }
    },
    {
      "type": "Feature",
      "properties": {
        "norad_id": 66595,
        "name": "STARLINK-35711",
        "group": "last-30-days",
        "lat": -25.423517778926158,
        "lon": 150.06145685824237,
        "alt_km": 416.3742244061532,
        "timestamp": "2025-12-14T18:52:54.242309+00:00",
        "meta_object_name": "STARLINK-35711",
        "meta_object_id": "2025-270H",
        "meta_epoch": "2025-12-13T20:00:03.000384",
        "meta_mean_motion": 15.50514888,
        "meta_eccentricity": 0.00014373,
        "meta_inclination": 42.9997,
        "meta_ra_of_asc_node": 186.3106,
        "meta_arg_of_pericenter": 267.8735,
        "meta_mean_anomaly": 124.8629,
        "meta_ephemeris_type": 0,
        "meta_classification_type": "U",
        "meta_norad_cat_id": 66595,
        "meta_element_set_no": 999,
        "meta_rev_at_epoch": 468,
        "meta_bstar": 0.0017545847,
        "meta_mean_motion_dot": 0.00103728,
        "meta_mean_motion_ddot": 0,
        "tle_line1": "1 66595U 25270H   25347.83336806  .00103728  00000+0  17546-2 0  9990",
        "tle_line2": "2 66595  42.9997 186.3106 0001437 267.8735 124.8629 15.50514888  4686"
      },
      "geometry": {
        "type": "Point",
        "coordinates": [
          150.06145685824237,
          -25.423517778926158
        ]
      }
    },
    {
      "type": "Feature",
      "properties": {
        "norad_id": 66596,
        "name": "STARLINK-35811",
        "group": "last-30-days",
        "lat": -37.93335348766852,
        "lon": 57.68314000916507,
        "alt_km": 445.9430016647184,
        "timestamp": "2025-12-14T18:52:54.242320+00:00",
        "meta_object_name": "STARLINK-35811",
        "meta_object_id": "2025-270J",
        "meta_epoch": "2025-12-13T20:00:03.000384",
        "meta_mean_motion": 15.40663896,
        "meta_eccentricity": 0.00019391,
        "meta_inclination": 42.9996,
        "meta_ra_of_asc_node": 186.414,
        "meta_arg_of_pericenter": 270.0573,
        "meta_mean_anomaly": 80.1107,
        "meta_ephemeris_type": 0,
        "meta_classification_type": "U",
        "meta_norad_cat_id": 66596,
        "meta_element_set_no": 999,
        "meta_rev_at_epoch": 468,
        "meta_bstar": 0.0010306036,
        "meta_mean_motion_dot": 0.00042939,
        "meta_mean_motion_ddot": 0,
        "tle_line1": "1 66596U 25270J   25347.83336806  .00042939  00000+0  10306-2 0  9994",
        "tle_line2": "2 66596  42.9996 186.4140 0001939 270.0573  80.1107 15.40663896  4686"
      },
      "geometry": {
        "type": "Point",
        "coordinates": [
          57.68314000916507,
          -37.93335348766852
        ]
      }
    },
    {
      "type": "Feature",
      "properties": {
        "norad_id": 66597,
        "name": "STARLINK-35820",
        "group": "last-30-days",
        "lat": -38.59549772345751,
        "lon": 121.87050975085303,
        "alt_km": 442.16976003027503,
        "timestamp": "2025-12-14T18:52:54.242330+00:00",
        "meta_object_name": "STARLINK-35820",
        "meta_object_id": "2025-270K",
        "meta_epoch": "2025-12-13T20:00:03.000384",
        "meta_mean_motion": 15.46067585,
        "meta_eccentricity": 0.00016907,
        "meta_inclination": 42.9999,
        "meta_ra_of_asc_node": 186.3216,
        "meta_arg_of_pericenter": 268.2645,
        "meta_mean_anomaly": 120.1536,
        "meta_ephemeris_type": 0,
        "meta_classification_type": "U",
        "meta_norad_cat_id": 66597,
        "meta_element_set_no": 999,
        "meta_rev_at_epoch": 468,
        "meta_bstar": -0.046318685,
        "meta_mean_motion_dot": -0.02062013,
        "meta_mean_motion_ddot": 0,
        "tle_line1": "1 66597U 25270K   25347.83336806 -.02062013  00000+0 -46319-1 0  9996",
        "tle_line2": "2 66597  42.9999 186.3216 0001690 268.2645 120.1536 15.46067585  4686"
      },
      "geometry": {
        "type": "Point",
        "coordinates": [
          121.87050975085303,
          -38.59549772345751
        ]
      }
    }
  ]
}